name,street,suburb,state,postcode,latitude,longitude
ALDI Amaroo,12 Pioneer Street,Amaroo,Australian Capital Territory,2914,-35.16533714897931,149.13197717715352
ALDI Belconnen,"Cnr Benjamin Way, Cohen Street",Belconnen,Australian Capital Territory,2617,-35.2381850378627,149.06407004526426
ALDI Canberra CBD,148 Bunda Street,Canberra CBD,Australian Capital Territory,2601,-35.27913433323691,149.13399275969905
ALDI Casey,15 Kingsland Parade,Casey,Australian Capital Territory,2913,-35.17491001802421,149.09557487446745
ALDI Chisholm,36 Benham Street,Chisholm,Australian Capital Territory,2905,-35.41488899063587,149.1293881400122
ALDI Conder,9 Sidney Nolan Street,Conder,Australian Capital Territory,2906,-35.45671831362396,149.09370632644138
ALDI Gungahlin Marketplace,33 Hibberson Street,Gungahlin Marketplace,Australian Capital Territory,2912,-35.18525044991492,149.13412722944776
ALDI Holt,50 - 60 Hardwick Crescent,Holt,Australian Capital Territory,2615,-35.22124631291976,149.01939129772612
ALDI Macquarie,1 Bowman Street,Macquarie,Australian Capital Territory,2614,-35.253122796591455,149.0720248278404
ALDI Majura Park,18 - 26 Spitfire Avenue,Majura Park,Australian Capital Territory,2609,-35.29916896437487,149.19089034111096
ALDI Tuggeranong,"Cnr Anketell Street, Soward Way",Tuggeranong,Australian Capital Territory,2900,-35.41768662002347,149.06867886566312
ALDI Weston,"Cnr Cooleman Court, Brierly Street",Weston,Australian Capital Territory,2611,-35.341093574472204,149.05259024132755
ALDI Albion Park Rail,10 Ash Avenue,Albion Park Rail,New South Wales,2527,-34.5708864517263,150.80059366332665
ALDI Albury,617 - 621 Young Street,Albury,New South Wales,2640,-36.07601138176162,146.9246238675685
ALDI Ambarvale,45 Woodhouse Drive,Ambarvale,New South Wales,2560,-34.0853743118726,150.8009268343427
ALDI Armidale,95 Barney Street,Armidale,New South Wales,2350,-30.517472933509467,151.66947789802387
ALDI Arndell Park,"Cnr Holbeche Road, Walters Road",Arndell Park,New South Wales,2148,-33.789227659918296,150.88994987714196
ALDI Ashfield,260 A Liverpool Road,Ashfield,New South Wales,2131,-33.88905582268505,151.12331800971683
ALDI Auburn,"Cnr Queen St, Harrow Rd",Auburn,New South Wales,2144,-33.8506237,151.0320102
ALDI Balgowlah,22 - 26 Roseberry Street,Balgowlah,New South Wales,2093,-33.788207353865815,151.26818880890457
ALDI Ballina,2 North Creek Road,Ballina,New South Wales,2478,-28.850235663319612,153.55413338659002
ALDI Bankstown,440 - 450 Chapel Road,Bankstown,New South Wales,2200,-33.91373072954004,151.03401262577762
ALDI Bankstown,"Cnr Henry Lawson Road, Milperra Road",Bankstown,New South Wales,2200,-33.92822347852127,150.9811903402541
ALDI Bass Hill,753 Hume Highway,Bass Hill,New South Wales,2197,-33.899697935668264,150.99328069537802
ALDI Bateau Bay,12 / M01 Bay Village Road,Bateau Bay,New South Wales,2261,-33.37550092526942,151.47253745377643
ALDI Batemans Bay,"Cnr Vesper Street, Beach Road",Batemans Bay,New South Wales,2536,-35.70662262059528,150.1757019256714
ALDI Bathurst,128 Russell Street,Bathurst,New South Wales,2795,-33.42029930532308,149.58002785674736
ALDI Baulkham Hills,"Cnr Olive Street, Old Northern Road",Baulkham Hills,New South Wales,2153,-33.758605395850914,150.99149362716372
ALDI Belmont,"Cnr Pacific Highway, Maude Street",Belmont,New South Wales,2280,-33.03391189181824,151.66069236501235
ALDI Belrose,56 - 58 Glen Street,Belrose,New South Wales,2085,-33.7388537,151.210396
ALDI Blacktown,17 Patrick Street,Blacktown,New South Wales,2148,-33.7696952,150.9045178
ALDI Blair Athol,"Cnr Blaxland Road, The Kraal Drive",Blair Athol,New South Wales,2560,-34.06325791681787,150.80703686322937
ALDI Blue Haven,"Cnr Blue Haven Road, Roper Road",Blue Haven,New South Wales,2262,-33.20649191419877,151.4983420524057
ALDI Bomaderry,54 Narang Rd,Bomaderry,New South Wales,2541,-34.8453187989933,150.59405267368632
ALDI Bondi Junction,71 - 91 / Spring Street,Bondi Junction,New South Wales,2022,-33.892926171389966,151.24802532176824
ALDI Bonnyrigg,718 Cabramatta Road,Bonnyrigg,New South Wales,2177,-33.89340819192917,150.8900987803219
ALDI Bowral,5-11 Banyette Street,Bowral,New South Wales,2576,-34.48201296156397,150.4157942163538
ALDI Box Hill,"Cnr Windsor Rd, Mount Carmel Dr",Box Hill,New South Wales,2765,-33.65896767634362,150.87988632919502
ALDI Broadway,1 Bay Street,Broadway,New South Wales,2007,-33.88409812479245,151.19478082050415
ALDI Brookvale,3 - 5 Cross Street,Brookvale,New South Wales,2100,-33.76637598797827,151.26728879551115
ALDI Byron Bay,"Cnr Byron Street, Fletcher Street",Byron Bay,New South Wales,2481,-28.643214712009595,153.61282894354258
ALDI Campbelltown,200 Gilchrist Drive,Campbelltown,New South Wales,2560,-34.076607189871986,150.79835871207374
ALDI Campbelltown,271 Queen Street,Campbelltown,New South Wales,2560,-34.06907369529932,150.81052826067426
ALDI Canterbury,73 Jeffrey Street,Canterbury,New South Wales,2193,-33.9106467918808,151.1200138534139
ALDI Cardiff,49 Harrison Street,Cardiff,New South Wales,2285,-32.94090072672528,151.65967212883604
ALDI Carlton,76 Edward Street,Carlton,New South Wales,2218,-33.976949335616226,151.12437850119701
ALDI Carnes Hill,20 Main Street,Carnes Hill,New South Wales,2171,-33.939006454918655,150.84473291791966
ALDI Casino,139 Centre Street,Casino,New South Wales,2470,-28.865748949439354,153.0457610550498
ALDI Castle Hill,6 - 14 / S Castle Street,Castle Hill,New South Wales,2154,-33.73025039983194,151.00598930281564
ALDI Casula,1 Ingham Drive,Casula,New South Wales,2170,-33.94839976362674,150.90003029632985
ALDI Cessnock,165 - 167 Wollombi Road,Cessnock,New South Wales,2325,-32.8342033744877,151.35155736661685
ALDI Charlestown,30 Pearson Street,Charlestown,New South Wales,2290,-32.9640699,151.6938434
ALDI Chatswood,1 Anderson Street,Chatswood,New South Wales,2067,-33.796961847442006,151.1836170828207
ALDI Chatswood Place,256 - 260 Victoria Avenue,Chatswood Place,New South Wales,2067,-33.79539284305662,151.18826366702098
ALDI Chullora,355 - 357 Waterloo Road,Chullora,New South Wales,2190,-33.89371453280208,151.06137520147306
ALDI Cobbitty,3 Kakadu Street,Cobbitty,New South Wales,2570,-33.9947691,150.7242643
ALDI Coffs Harbour,253 Pacific Highway,Coffs Harbour,New South Wales,2450,-30.283520445787445,153.12952709402228
ALDI Cooma,18 Hilton Street,Cooma,New South Wales,2630,-36.230886590153155,149.1348174441803
ALDI Corrimal,"Cnr Russell Street, Underwood Street",Corrimal,New South Wales,2518,-34.371483262617105,150.89605746210074
ALDI Cowra,"Cnr Fitzroy Street, Railway Lane",Cowra,New South Wales,2794,-33.836743981833116,148.6964033492768
ALDI Cranebrook,80 - 98 Borrowdale Way,Cranebrook,New South Wales,2749,-33.72002138721829,150.71060934026914
ALDI Dapto,38 Osborne Street,Dapto,New South Wales,2530,-34.493358101223166,150.7941681411045
ALDI Darlinghurst,"Cnr Oxford Street, Pelican Street",Darlinghurst,New South Wales,2010,-33.8780113,151.2137304
ALDI Dee Why,15 - 19 Pacific Parade,Dee Why,New South Wales,2099,-33.7552152,151.2838675
ALDI Drummoyne,19 A Roseby Street,Drummoyne,New South Wales,2047,-33.85581660389572,151.16267909655758
ALDI Dubbo,176 Talbragar Street,Dubbo,New South Wales,2830,-32.24578814049935,148.61234984596328
ALDI Dural,22 Allen Way,Dural,New South Wales,2158,-33.693008111412205,151.01864739460942
ALDI East Maitland,18 - 20 Garnett Road,East Maitland,New South Wales,2323,-32.761113166182675,151.58815681485186
ALDI Eastgardens,152 Bunnerong Road,Eastgardens,New South Wales,2036,-33.9444258,151.2231317
ALDI Eastlakes,16D Evans Ave,Eastlakes,New South Wales,2018,-33.924417559378405,151.2119557309344
ALDI Edgecliff,203 - 233 New South Head Road,Edgecliff,New South Wales,2024,-33.8790789939343,151.23559147827072
ALDI Edgeworth,57 Thomas Street,Edgeworth,New South Wales,2285,-32.92511572163856,151.6261755742224
ALDI Edmondson Park,1952-1982 Camden Valley Way,Edmondson Park,New South Wales,2174,-33.95434222447977,150.85824574085115
ALDI Emerald Hills,5 Emerald Hills Boulevarde,Emerald Hills,New South Wales,2179,-33.99639913226753,150.7924955724562
ALDI Emu Plains,"Cnr Great Western Highway, Pyramid Street",Emu Plains,New South Wales,2750,-33.75236200600817,150.65915550743483
ALDI Engadine,101 / 15 Caldarra Avenue,Engadine,New South Wales,2233,-34.06560369480776,151.0141479865082
ALDI Erina,620 - 658 Terrigal Drive,Erina,New South Wales,2250,-33.43505962918898,151.39190521043335
ALDI Erskine Park,"Cnr Peppertree Drive, Swallow Drive",Erskine Park,New South Wales,2759,-33.803911128158376,150.80498578263294
ALDI Fairfield,8 - 36 Station Street,Fairfield,New South Wales,2165,-33.867614536160545,150.95272226432806
ALDI Fairfield West,370 Hamilton Road,Fairfield West,New South Wales,2165,-33.86858263297094,150.92316459170794
ALDI Fairy Meadow,102 - 110 Princess Highway,Fairy Meadow,New South Wales,2519,-34.393696473413,150.89327710737496
ALDI Fletcher,"Cnr Minmi Road, Britannia Street",Fletcher,New South Wales,2287,-32.87622516026928,151.63965550566496
ALDI Forster,3 - 17 Breese Parade,Forster,New South Wales,2428,-32.19949474770224,152.51946109141903
ALDI Frenchs Forest,"Cnr Forest Way, Warringah Road",Frenchs Forest,New South Wales,2086,-33.74988246471832,151.22393671307526
ALDI Galston,346 Galston Road,Galston,New South Wales,2159,-33.65267351041866,151.04660284743574
ALDI Gladesville,413 - 417 Victoria Road,Gladesville,New South Wales,2111,-33.82368336936035,151.12408602113345
ALDI Glenfield Park,"Cnr Tanda Place, Pinaroo Drive",Glenfield Park,New South Wales,2650,-35.13710149621356,147.33387391138663
ALDI Glenmore Park,1 Town Terrace,Glenmore Park,New South Wales,2745,-33.78745650037261,150.6686459271512
ALDI Goonellabah,15 Simeoni Drive,Goonellabah,New South Wales,2480,-28.821123300709,153.32702798465422
ALDI Goulburn,9 - 13 Clinton Lane,Goulburn,New South Wales,2580,-34.75778152444265,149.716586182209
ALDI Grafton,163 - 169 Prince Street,Grafton,New South Wales,2460,-29.686539053407813,152.93653594723875
ALDI Green Point,"Cnr Avoca Drive, Bayside Drive",Green Point,New South Wales,2251,-33.45167596312207,151.36018130614679
ALDI Gregory Hills,33 Village Circuit,Gregory Hills,New South Wales,2557,-34.02522274958597,150.7765624632497
ALDI Griffith,4 - 6 Oakes Road,Griffith,New South Wales,2680,-34.3013381,146.0753789
ALDI Guildford,280 - 290 Woodville Road,Guildford,New South Wales,2161,-33.84949115870432,150.99655223313522
ALDI Gunnedah,185 Conadilly Street,Gunnedah,New South Wales,2380,-30.977633219575534,150.25237118918886
ALDI Hamilton,11 Swan Street,Hamilton,New South Wales,2303,-32.9188221073794,151.7461439009006
ALDI Hillsdale,238 - 262 Bunnerong Road,Hillsdale,New South Wales,2036,-33.9518838639907,151.23104108981173
ALDI Hornsby,236 Pacific Highway,Hornsby,New South Wales,2077,-33.70463434207999,151.09961551595592
ALDI Hoxton Park,501 Cowpasture Road,Hoxton Park,New South Wales,2171,-33.918668740447835,150.8549682975237
ALDI Hurstville,"A1 Cross Street, Park Road",Hurstville,New South Wales,2220,-33.96624819978723,151.1059573615158
ALDI Jerrabomberra,9 Ferdinand Lane,Jerrabomberra,New South Wales,2619,-35.3796128,149.1979395
ALDI Jesmond,28 Blue Gum Road,Jesmond,New South Wales,2299,-32.9028997288659,151.68943631379236
ALDI Katoomba,"Cnr Waratah Street, Katoomba Street",Katoomba,New South Wales,2780,-33.71739283121868,150.3104175910436
ALDI Kellyville,92 Wrights Road,Kellyville,New South Wales,2155,-33.71386777330012,150.97302529264238
ALDI Kempsey,15 - 33 Belgrave Street,Kempsey,New South Wales,2440,-31.080129989445474,152.83988669270056
ALDI Kirrawee,580 Princes Highway,Kirrawee,New South Wales,2232,-34.03261193402822,151.0737615820178
ALDI Kogarah,1 / G1 Railway Parade,Kogarah,New South Wales,2217,-33.96208867438926,151.13262546700452
ALDI Kotara,30 Northcott Drive,Kotara,New South Wales,2289,-32.93995618406571,151.7088293732499
ALDI Kurri Kurri,106 -112 Barton Street,Kurri Kurri,New South Wales,2327,-32.819166290705574,151.48276642335443
ALDI Lake Haven,Cnr Lakehaven Drive,Lake Haven,New South Wales,2263,-33.24025799334544,151.5039048357513
ALDI Lakemba,212 - 226 Haldon Street,Lakemba,New South Wales,2195,-33.92455400328398,151.07943885594835
ALDI Lane Cove,2 Rosenthal Avenue,Lane Cove,New South Wales,2066,-33.8136415477472,151.16921405627158
ALDI Lavington,385 - 387 Wagga Road,Lavington,New South Wales,2641,-36.047042540951765,146.9394687371396
ALDI Leeton,1 Acacia Avenue,Leeton,New South Wales,2705,-34.551827780021405,146.397564098944
ALDI Leichhardt,"Shop 21A Marion Street, Flood Street",Leichhardt,New South Wales,2040,-33.88366278027871,151.1556364583012
ALDI Lidcombe,92 Parramatta Road,Lidcombe,New South Wales,2141,-33.849343555176524,151.04878145706044
ALDI Lismore,44 Ballina Road,Lismore,New South Wales,2480,-28.813614402885396,153.27927895152052
ALDI Lithgow,2 Valley Drive,Lithgow,New South Wales,2790,-33.48840716739525,150.15301406107872
ALDI Liverpool,165 - 191 Macquarie Street,Liverpool,New South Wales,2170,-33.9216044,150.9233006
ALDI Liverpool,82 Hoxton Park Road,Liverpool,New South Wales,2170,-33.92806721944698,150.90773085679982
ALDI Macquarie Fields,61 Victoria Road,Macquarie Fields,New South Wales,2564,-33.984879857964614,150.89215128010323
ALDI Macquarie Park,"Cnr Herring Road, Waterloo Road",Macquarie Park,New South Wales,2113,-33.77858875162918,151.1207476071625
ALDI Maitland,405 / Mm01 High Street,Maitland,New South Wales,2320,-32.73350896987307,151.55614659090267
ALDI Maroubra,707 - 751 Anzac Parade,Maroubra,New South Wales,2035,-33.94051884296673,151.23801013987296
ALDI Marrickville,20 Smidmore Street,Marrickville,New South Wales,2204,-33.90816909752756,151.17194735469698
ALDI Marsden Park,10 Hollinsworth Road,Marsden Park,New South Wales,2765,-33.717351919025404,150.84066338930458
ALDI Mayfield,230 Maitland Road,Mayfield,New South Wales,2304,-32.89872546606684,151.7378486309253
ALDI McGraths Hill,5 Curtis Road,McGraths Hill,New South Wales,2756,-33.6235855049975,150.8365185195669
ALDI Menai,509 Old Illawarra Road,Menai,New South Wales,2234,-34.018081850662135,151.0108120300074
ALDI Merimbula,107 Main St,Merimbula,New South Wales,2548,-36.88651986343787,149.90983155141927
ALDI Merrylands,191 - 201 Pitt Street,Merrylands,New South Wales,2160,-33.83431337032786,150.9880155589364
ALDI Miller,90 Cartwright Avenue,Miller,New South Wales,2168,-33.91903837492367,150.88341920733077
ALDI Minto,"Cnr Pembroke Road, Monagham Street",Minto,New South Wales,2566,-34.028688341893414,150.84906279388736
ALDI Miranda,14 - 16 Wandella Road,Miranda,New South Wales,2228,-34.03327766805398,151.09904587392012
ALDI Miranda,600 The Kingsway,Miranda,New South Wales,2228,-34.03443977940445,151.09970263140124
ALDI Mittagong,181 - 183 Old Hume Highway,Mittagong,New South Wales,2575,-34.447474309327646,150.43982740405696
ALDI Mona Vale,13 Bungan Street,Mona Vale,New South Wales,2103,-33.676444286253286,151.30264658379673
ALDI Moonee Beach,2B Moonee Beach Road,Moonee Beach,New South Wales,2450,-30.206623690125735,153.14964042944774
ALDI Mosman,3 / 1 Brady Street,Mosman,New South Wales,2088,-33.82357376047781,151.24034664397823
ALDI Moss Vale,"Cnr Argyle Street, Roberston Road",Moss Vale,New South Wales,2577,-34.54592043340431,150.38022118416137
ALDI Mount Druitt,16 Zoe Place,Mount Druitt,New South Wales,2770,-33.76552662607599,150.8276125291969
ALDI Mount Hutton,4 Dunkley Parade,Mount Hutton,New South Wales,2290,-32.97801775689199,151.66891334414558
ALDI Mt Annan,"Cnr Waterworth Drive, Main Street",Mt Annan,New South Wales,2567,-34.04980341903197,150.75728457006005
ALDI Mt Kuring-gai,"Cnr Nyarra Road, Pacific Highway",Mt Kuring-gai,New South Wales,2080,-33.656185961749294,151.13397281901854
ALDI Mudgee,97 - 99 Church Street,Mudgee,New South Wales,2850,-32.596409079432796,149.58869499689743
ALDI Muswellbrook,31 Rutherford Road,Muswellbrook,New South Wales,2333,-32.28201641828472,150.89722534355124
ALDI Narellan,304 - 306 Camden Valley Way,Narellan,New South Wales,2567,-34.04123591470003,150.7345452855421
ALDI Narooma,185 / S42 Princes Highway,Narooma,New South Wales,2546,-36.223110854909294,150.12712550055963
ALDI Newcastle CBD,54 Union Street,Newcastle CBD,New South Wales,2302,-32.930447139411086,151.7657291490912
ALDI Newtown,1/330 King St,Newtown,New South Wales,2042,-33.898270286844195,151.17880703497028
ALDI North Kellyville,10 Hezlett Road,North Kellyville,New South Wales,2155,-33.69865427699292,150.95785582051903
ALDI North Richmond,47 - 55 Bells Line Of Road,North Richmond,New South Wales,2754,-33.58051166840119,150.71974080213622
ALDI North Rocks,328 - 336 North Rocks Road,North Rocks,New South Wales,2151,-33.76893163285721,151.02834448037396
ALDI North Strathfield,20 George Street,North Strathfield,New South Wales,2137,-33.863947113603665,151.08852772944778
ALDI North Sydney,99 Mount Street,North Sydney,New South Wales,2059,-33.83937667156269,151.2083681572611
ALDI Nowra,8 - 16 Kinghorne Street,Nowra,New South Wales,2541,-34.8845564,150.601024
ALDI Orange,167 - 177 Peisley Street,Orange,New South Wales,2800,-33.285241987612665,149.1024272763578
ALDI Parkes,"Cnr Clarinda Street, Caledonia Street",Parkes,New South Wales,2870,-33.14086100212783,148.17548726745912
ALDI Parramatta,175 Church Street,Parramatta,New South Wales,2150,-33.8176887,151.0020378
ALDI Penrith,201 - 205 High Street,Penrith,New South Wales,2750,-33.75457825370732,150.70621361723758
ALDI Penrith Westfield,585 High Street,Penrith Westfield,New South Wales,2750,-33.751538400336216,150.69217182291808
ALDI Point Clare,53 - 59 Brisbane Water Drive,Point Clare,New South Wales,2250,-33.44555227807196,151.3274922508568
ALDI Port Macquarie,3 Hughes Place,Port Macquarie,New South Wales,2444,-31.427991884143847,152.87933209570087
ALDI Quakers Hill,85 Bali Drive,Quakers Hill,New South Wales,2763,-33.717452291425325,150.89150987913322
ALDI Queanbeyan,134 - 136 Crawford Street,Queanbeyan,New South Wales,2620,-35.34926972216029,149.23201174608093
ALDI Raymond Terrace,22 - 32 Port Stephens Road,Raymond Terrace,New South Wales,2324,-32.75850629804002,151.74553268792252
ALDI Rhodes,1 Rider Boulevarde,Rhodes,New South Wales,2138,-33.83469134885747,151.08525102709146
ALDI Richmond,128 Windsor Street,Richmond,New South Wales,2753,-33.59885359570495,150.75442259283952
ALDI Riverwood,247 - 253 Belmore Road,Riverwood,New South Wales,2210,-33.95247028422338,151.05112184624224
ALDI Rockdale,1 Rockdale Plaza Drive,Rockdale,New South Wales,2216,-33.9576471,151.1397873
ALDI Rosebery,85 Dunning Avenue,Rosebery,New South Wales,2018,-33.91683381895187,151.20244268877397
ALDI Roselands,24 Roselands Avenue,Roselands,New South Wales,2196,-33.93135793014376,151.08704293213958
ALDI Rouse Hill,3 Resolution Place,Rouse Hill,New South Wales,2155,-33.68526568229396,150.91842849938834
ALDI Rutherford,3 Hillview Street,Rutherford,New South Wales,2320,-32.717116959774245,151.527296137417
ALDI Rydalmere,359 - 363 Victoria Road,Rydalmere,New South Wales,2116,-33.812688056990446,151.0421341098217
ALDI Ryde,"Cnr Devlin Street, Blaxland Road",Ryde,New South Wales,2112,-33.813108669285604,151.10539988518067
ALDI Salamander Bay,3 Central Avenue,Salamander Bay,New South Wales,2317,-32.7340841,152.1084777
ALDI Seven Hills,"Cnr Prospect Highway, Federal Road",Seven Hills,New South Wales,2147,-33.77524032527879,150.93401702904922
ALDI Shellharbour,5 Holm Place,Shellharbour,New South Wales,2529,-34.56295573735718,150.83708850921002
ALDI Singleton,17 John Street,Singleton,New South Wales,2330,-32.56977082382491,151.16481962415756
ALDI St Marys,410 - 422 Great Western Highway,St Marys,New South Wales,2760,-33.76995985381157,150.77138974934587
ALDI Stanhope Gardens,"Cnr Sentry Drive, Stanhope Parkway",Stanhope Gardens,New South Wales,2768,-33.718013632939154,150.92069863007336
ALDI Tahmoor,153 - 159 Remembrance Driveway,Tahmoor,New South Wales,2573,-34.225430660908025,150.59181645843316
ALDI Tamworth,194 - 196 Peel Street,Tamworth,New South Wales,2340,-31.0851574,150.9259703
ALDI Taree,"Cnr High Street, Commerce Street",Taree,New South Wales,2430,-31.911433583925735,152.45449026206845
ALDI Thornleigh,275 - 291 Pennant Hills Road,Thornleigh,New South Wales,2120,-33.731855804228346,151.08012932857196
ALDI Toormina,52 Minorie Drive,Toormina,New South Wales,2452,-30.354739244338283,153.0905392435686
ALDI Toronto,189 - 197 Brighton Ave,Toronto,New South Wales,2283,-33.01386926161606,151.59471810615156
ALDI Toukley,127 Evans St,Toukley,New South Wales,2263,-33.26672942003941,151.55029573926942
ALDI Tuggerah,50 Wyong Rd,Tuggerah,New South Wales,2259,-33.30853339296656,151.41194662147848
ALDI Tweed Heads South,9 - 11 Machinery Drive,Tweed Heads South,New South Wales,2486,-28.203080279649676,153.54080346477699
ALDI Tweed Mall,16 - 32 Wharf Street,Tweed Mall,New South Wales,2485,-28.171682687403994,153.5445972092968
ALDI Ulladulla,23 Boree Street,Ulladulla,New South Wales,2539,-35.35946123909003,150.4720840049629
ALDI Umina Beach,310 Trafalgar Ave,Umina Beach,New South Wales,2257,-33.52227969729556,151.32104960176002
ALDI Villawood,2 Villawood Road,Villawood,New South Wales,2163,-33.88255254350566,150.9767097742397
ALDI Vincentia,8 Moona Creek Road,Vincentia,New South Wales,2540,-35.0751485,150.6562458
ALDI Wagga Wagga,11 Berry Street,Wagga Wagga,New South Wales,2650,-35.11542921415756,147.37287394942933
ALDI Wallsend,32 Kokera Street,Wallsend,New South Wales,2287,-32.9025427,151.6654127
ALDI Warilla,43 - 57 Shellharbour Road,Warilla,New South Wales,2528,-34.54682798614562,150.863072507375
ALDI Warners Bay,"Cnr King Street, Howard Street",Warners Bay,New South Wales,2282,-32.97547242225997,151.6463779825399
ALDI Warrawong,45 Cowper Street,Warrawong,New South Wales,2502,-34.48696800004431,150.88937978704993
ALDI Warriewood,12 Jacksons Road,Warriewood,New South Wales,2102,-33.69526906880217,151.29624423770065
ALDI Waterloo,20 A Danks Street,Waterloo,New South Wales,2017,-33.89749326671707,151.2116014260227
ALDI Wentworthville,331 - 339 Great Western Highway,Wentworthville,New South Wales,2145,-33.816081197571116,150.9697791220902
ALDI Westleigh,"Cnr Duffy Ave, Eucalyptus Drive",Westleigh,New South Wales,2120,-33.71960172871207,151.0688068319464
ALDI Wetherill Park,1024 The Horsely Drive,Wetherill Park,New South Wales,2164,-33.850889952101184,150.90970695757505
ALDI Winston Hills,Cnr Caroline Chisholm Drive,Winston Hills,New South Wales,2153,-33.77279391182882,150.968241260791
ALDI Wolli Creek,4 Magdalene Terrace,Wolli Creek,New South Wales,2205,-33.92996283331236,151.15245062027867
ALDI Wollongong,25 Stewart Street,Wollongong,New South Wales,2500,-34.428256166624486,150.89843005000228
ALDI Woolooware Bay,455 - 461 Captain Cook Dr,Woolooware Bay,New South Wales,2230,-34.038513,151.1423076
ALDI Wyoming,489 Pacific Highway,Wyoming,New South Wales,2250,-33.40745987753102,151.3513465973764
ALDI Wyong,146 - 148 Pacific Highway,Wyong,New South Wales,2259,-33.300850886326685,151.42012140406226
ALDI Yass,193 Comur Street,Yass,New South Wales,2582,-34.844589420257456,148.9129134518464
ALDI Young,11 Zouch St,Young,New South Wales,2594,-34.31060862649985,148.3003636313041
ALDI Acacia Ridge,1150 Beaudesert Road,Acacia Ridge,Queensland,4110,-27.574741881466476,153.02602744836312
ALDI Albany Creek,630-636 Albany Creek Road,Albany Creek,Queensland,4035,-27.346794639138736,152.97688212545793
ALDI Alexandra Hills,157 - 169 Finucane Road,Alexandra Hills,Queensland,4161,-27.522899228777163,153.21913254480938
ALDI Allenstown,167 Gladstone Road,Allenstown,Queensland,4700,-23.39714428764766,150.50638943227264
ALDI Andergrove,1 Erie Street,Andergrove,Queensland,4740,-21.1061053,149.1702705
ALDI Arana Hills,5-11 Patricks Road,Arana Hills,Queensland,4054,-27.39985519117271,152.95798410421526
ALDI Ashgrove,30 Harry Street,Ashgrove,Queensland,4060,-27.444802630371882,152.99265423213154
ALDI Aspley,59 Albany Creek Road,Aspley,Queensland,4034,-27.362938274563255,153.01303588598736
ALDI Avoca,123 Takalvan Street,Avoca,Queensland,4670,-24.889572808437617,152.31850200764652
ALDI Bald Hills,1905 Gympie Road,Bald Hills,Queensland,4036,-27.334869668181778,153.00934740770734
ALDI Bargara,699 Bargara Road,Bargara,Queensland,4670,-24.8181235877617,152.45514944287348
ALDI Beaudesert,155 - 161 Brisbane Street,Beaudesert,Queensland,4285,-27.98361183788743,152.99640176263503
ALDI Beenleigh,90 City Road,Beenleigh,Queensland,4207,-27.714853577559634,153.20268837742188
ALDI Beerwah,78 Simpson Street,Beerwah,Queensland,4519,-26.859892475132032,152.95761386690572
ALDI Bethania,1 Fletcher Street,Bethania,Queensland,4205,-27.702297628259437,153.1582579890337
ALDI Birtinya,8 The Avenue,Birtinya,Queensland,4575,-26.740195990730516,153.11625007789812
ALDI Booval,22 South Station Road,Booval,Queensland,4304,-27.61128377673847,152.78983557729813
ALDI Brassall,68 Hunter Street,Brassall,Queensland,4305,-27.596938066543355,152.74686025407297
ALDI Bribie Island,132-150 Goodwin Drive,Bribie Island,Queensland,4507,-27.07262777956253,153.1622101233135
ALDI Brightwater,69-79 Attenuata Drive,Brightwater,Queensland,4557,-26.71088464356767,153.10879326041086
ALDI Browns Plains,27 - 49 Browns Plains Road,Browns Plains,Queensland,4118,-27.66268666013048,153.04014813887397
ALDI Bundaberg,19 Maryborough Street,Bundaberg,Queensland,4670,-24.870941242767934,152.34718771385266
ALDI Burleigh Heads,149 West Burleigh Road,Burleigh Heads,Queensland,4220,-28.0967721,153.4410341
ALDI Burpengary,172 Station Road,Burpengary,Queensland,4505,-27.153321901025894,152.9744349030758
ALDI Caboolture,147 King Street,Caboolture,Queensland,4510,-27.0846144,152.9405766
ALDI Caloundra,2 Baldwin Street,Caloundra,Queensland,4551,-26.803813615931386,153.11951938726918
ALDI Cannon Hill,1145 Wynnum Road,Cannon Hill,Queensland,4170,-27.473126765255852,153.09880625589506
ALDI Capalaba,35 - 37 Mount Cotton Road,Capalaba,Queensland,4157,-27.524597192513124,153.18887595644938
ALDI Carindale,1154 Creek Road,Carindale,Queensland,4152,-27.50351397446334,153.10139408194223
ALDI Chermside,628 Gympie Road,Chermside,Queensland,4032,-27.391785549431802,153.03064993389623
ALDI Clontarf,10-22 Hornibrook Esplanade,Clontarf,Queensland,4019,-27.260413403835816,153.08080349570082
ALDI Coorparoo,300 Old Cleveland Road,Coorparoo,Queensland,4151,-27.49475032760104,153.0578216003232
ALDI Dalby,34 Archibald Street,Dalby,Queensland,4405,-27.1811338,151.263576
ALDI Darra,166 Monier Road,Darra,Queensland,4076,-27.559302010593285,152.95150192707044
ALDI Deception Bay,428-438 Deception Bay Road,Deception Bay,Queensland,4508,-27.191822499146944,153.02288897665176
ALDI Drewvale,27 Illaweena St,Drewvale,Queensland,4116,-27.63956907604528,153.0462029644701
ALDI Elanora,30 Guineas Creek Road,Elanora,Queensland,4221,-28.13432632045732,153.46784318965632
ALDI Fairfield Gardens,180 Fairfield Road,Fairfield Gardens,Queensland,4103,-27.509103003189892,153.02594145237848
ALDI Forest Lake,235 / M3 Forest Lake Boulevard,Forest Lake,Queensland,4078,-27.626217294565432,152.96809452003447
ALDI Fortitude Valley,650 Wickham Street,Fortitude Valley,Queensland,4006,-27.450058139569823,153.04043864800738
ALDI Gatton,7 Ballantine Street,Gatton,Queensland,4343,-27.557321157467424,152.28074723808038
ALDI Gladstone,52-54 Boles Street,Gladstone,Queensland,4680,-23.85778318186893,151.25268454912901
ALDI Gympie,43-47 Hyne Street,Gympie,Queensland,4570,-26.20116032974777,152.6671402186426
ALDI Harlaxton,1 - 7 Parrot Street,Harlaxton,Queensland,4350,-27.54076429994455,151.95222213375496
ALDI Helensvale,1 - 29 Millaroo Drive,Helensvale,Queensland,4212,-27.926175073081623,153.33600549557065
ALDI Hervey Bay,103 - 115 Main Street,Hervey Bay,Queensland,4655,-25.29021102503641,152.83735210712229
ALDI Highfields,73 Highfields Road,Highfields,Queensland,4352,-27.45284878196386,151.94386057621685
ALDI Hope Island,99 - 103 Broadwater Avenue,Hope Island,Queensland,4212,-27.8775395,153.364655
ALDI Inala,"Cnr Inala Avenue, Corsair Ave",Inala,Queensland,4077,-27.59826977597308,152.97445593477937
ALDI Indooroopilly,322 Moggill Road,Indooroopilly,Queensland,4068,-27.49769296871629,152.97310692028879
ALDI Jimboomba,1 Bushman Dr,Jimboomba,Queensland,4280,-27.81718118908643,152.9649438705982
ALDI Kallangur,15 - 27 Goodfellows Road,Kallangur,Queensland,4503,-27.2522611158763,152.99434509779374
ALDI Kawana,119 Point Cartwright Drive,Kawana,Queensland,4575,-26.702804888697152,153.1307940468267
ALDI Kearneys Spring,"Cnr Hume Street, Stenner Street",Kearneys Spring,Queensland,4350,-27.59393145073336,151.95123031519543
ALDI Kelvin Grove,12 Bishop Street,Kelvin Grove,Queensland,4059,-27.444189740547525,153.00784796674375
ALDI Kenmore,795 Moggill Road,Kenmore,Queensland,4069,-27.5060845,152.9485672
ALDI Keperra,577 Settlement Road,Keperra,Queensland,4054,-27.4177826,152.9496753
ALDI Kepnock,153 Greathead Road,Kepnock,Queensland,4670,-24.87015920658962,152.3848441564487
ALDI Kingaroy,73 - 81 Youngman Street,Kingaroy,Queensland,4610,-26.54283769357636,151.8352620582664
ALDI Kippa Ring,212 Anzac Avenue,Kippa Ring,Queensland,4021,-27.226990092232555,153.09299234607366
ALDI Labrador,147 Central Street,Labrador,Queensland,4215,-27.946895427421364,153.39543217867086
ALDI Loganholme,"Cnr Pacific Highway, Bryants Road",Loganholme,Queensland,4129,-27.660447611774906,153.1719670392279
ALDI Lutwyche,543 Lutwyche Road,Lutwyche,Queensland,4030,-27.4224224,153.0347442
ALDI Maroochydore,102 Aerodrome Road,Maroochydore,Queensland,4558,-26.65849678166279,153.09525144479198
ALDI Marsden,50 - 58 Bourke Street,Marsden,Queensland,4132,-27.68094316587203,153.1159157608354
ALDI Maryborough,340 Alice Street,Maryborough,Queensland,4650,-25.5377137177397,152.69456768035656
ALDI Meridan Plains,238 Parklands Boulevard,Meridan Plains,Queensland,4551,-26.772471922080168,153.10654453703057
ALDI Mermaid Waters,Cnr Markeri & Bermuda St,Mermaid Waters,Queensland,4218,-28.043835584348134,153.40842517179362
ALDI Miami,2023 - 203 Gold Coast Highway,Miami,Queensland,4220,-28.0736008467414,153.44497330189336
ALDI Molendinar,562 Olsen Avenue,Molendinar,Queensland,4214,-27.976235624571057,153.37981100000084
ALDI Morayfield,14-24 Dickson Road,Morayfield,Queensland,4506,-27.09821618557729,152.95185816197124
ALDI Morayfield Supercentre,321-344 Morayfield Road,Morayfield Supercentre,Queensland,4506,-27.117334,152.9523909
ALDI Mount Ommaney,171 Dandenong Road,Mount Ommaney,Queensland,4074,-27.550198702446377,152.93947465581016
ALDI Mt Gravatt East,489 Creek Road,Mt Gravatt East,Queensland,4122,-27.527026185663264,153.09670425413398
ALDI Mudgeeraba,3 Robert St,Mudgeeraba,Queensland,4213,-28.074469707001718,153.36277333924502
ALDI Nambour,125 Howard Street,Nambour,Queensland,4560,-26.625961456410035,152.96511776688214
ALDI Nerang,57 Station Street,Nerang,Queensland,4211,-27.99706071714224,153.33836259913863
ALDI Noosaville,201 Weyba Road,Noosaville,Queensland,4566,-26.404654457800635,153.07274253864043
ALDI North Ipswich,"Cnr Pine Street, The Terrace",North Ipswich,Queensland,4305,-27.6088267,152.762491
ALDI North Lakes,48 North Lakes Drive,North Lakes,Queensland,4509,-27.239096752368557,153.01466271532865
ALDI North Lakes Westfield,"Cnr North Lakes Dve, Anzac Avenue",North Lakes Westfield,Queensland,4509,-27.243018330176486,153.01814366451836
ALDI Oxenford,2 Global Plaza,Oxenford,Queensland,4210,-27.88898449023196,153.31290536704063
ALDI Oxley,146 Blunder Road,Oxley,Queensland,4075,-27.57527471020364,152.98339483529386
ALDI Pimpama,102 Pimpama Jacobs Well Road,Pimpama,Queensland,4209,-27.813539267800742,153.29342089438592
ALDI Plainland,2 Endeavour Way,Plainland,Queensland,4341,-27.5621547,152.4239501
ALDI Redbank,1 Collingwood Drive,Redbank,Queensland,4031,-27.60564000567678,152.86786304375144
ALDI Redbank Plains,"Cnr Argyle Road, Redbank Plain Road",Redbank Plains,Queensland,4301,-27.645176318053046,152.87014837002562
ALDI Robina,8 Laver Drive,Robina,Queensland,4226,-28.081575492551895,153.38188253993613
ALDI Runaway Bay,10 - 12 Lae Drive,Runaway Bay,Queensland,4216,-27.913998992599033,153.40069965900923
ALDI Salisbury,271 Orange Grove Road,Salisbury,Queensland,4107,-27.557733272357115,153.0409926680888
ALDI Sandgate,47 Brighton Road,Sandgate,Queensland,4017,-27.31884581057027,153.06939372637197
ALDI Slacks Creek,392 Kingston Road,Slacks Creek,Queensland,4127,-27.644767436130348,153.12003988161464
ALDI Southport,"Cnr Ferry Road, Benowa Road",Southport,Queensland,4215,-27.985740755556275,153.4107087270276
ALDI Springfield Lakes,1 Main Street,Springfield Lakes,Queensland,4300,-27.677874848980103,152.9020900110549
ALDI Springwood,3434 Pacific Highway,Springwood,Queensland,4127,-27.628633599966072,153.1319182940165
ALDI Stafford,400 Stafford Road,Stafford,Queensland,4053,-27.4110836,153.0129584
ALDI Stanthorpe,"Cnr Lock Street, Davadi Street",Stanthorpe,Queensland,4380,-28.655173228010245,151.9369274213917
ALDI Stones Corner,405 Logan Road,Stones Corner,Queensland,4120,-27.50037407179723,153.04502827546307
ALDI Strathpine,295 Gympie Road,Strathpine,Queensland,4500,-27.3062791,152.9912418
ALDI Sunnybank Hills,"Cnr Calam Road, Compton Road",Sunnybank Hills,Queensland,4109,-27.610161301957067,153.05531417925263
ALDI Sunshine Cove,20 Flinders Lane,Sunshine Cove,Queensland,4558,-26.661573161322995,153.0823910343586
ALDI Taigum,330 Roghan Road,Taigum,Queensland,4018,-27.341651351721453,153.0420401940976
ALDI The Gap,17 Glen Affric Street,The Gap,Queensland,4061,-27.4462501,152.953239
ALDI Thuringowa,13 Hervey Range Road,Thuringowa,Queensland,4817,-19.316524377099213,146.72600052913825
ALDI Tingalpa,"Cnr Wynnum Road, Bognor Street",Tingalpa,Queensland,4173,-27.46602594602056,153.14221693006004
ALDI Torrington,546 Bridge Street,Torrington,Queensland,4350,-27.53619574585443,151.90448339196243
ALDI Underwood,21 Kingston Road,Underwood,Queensland,4119,-27.608889902627116,153.11010841157903
ALDI Upper Coomera,21 Coomera Grand Drive,Upper Coomera,Queensland,4209,-27.84974159179943,153.29881933068845
ALDI Upper Mt Gravatt,"Cnr Kessels Road, Logan Road",Upper Mt Gravatt,Queensland,4122,-27.564559036040446,153.08395382806395
ALDI Urangan,19 Cartwright Court,Urangan,Queensland,4655,-25.291042756102044,152.8911285
ALDI Varsity Lakes,1 South Bay Drive,Varsity Lakes,Queensland,4227,-28.085399816491805,153.40935869814754
ALDI Victoria Point,11 - 17 Bunker Road,Victoria Point,Queensland,4165,-27.58516209991337,153.28054067183743
ALDI Warner,353 - 355 Samsonvale Road,Warner,Queensland,4500,-27.292522987073458,152.9519442978662
ALDI Warwick,65 - 71 Fitzroy Street,Warwick,Queensland,4370,-28.213937967755932,152.03474001507786
ALDI West End,335 Montague Road,West End,Queensland,4101,-27.48230324112409,153.00360942473847
ALDI Yamanto,475 - 481 Warwick Road,Yamanto,Queensland,4305,-27.6584818921831,152.74146045580235
ALDI Adelaide,2 Butler Boulevard,Adelaide,South Australia,5950,-34.9348135994429,138.52332502149585
ALDI Aldinga,1 Main South Road,Aldinga,South Australia,5173,-35.26689646412027,138.48444666065865
ALDI Berri,32 Kay Avenue,Berri,South Australia,5343,-34.279371949685924,140.60962157033498
ALDI Blackwood,198 - 200 Main Road,Blackwood,South Australia,5051,-35.01642039803256,138.61598519928864
ALDI Blakeview,15 Main Terrace,Blakeview,South Australia,5114,-34.68095407761213,138.7024907647599
ALDI Clovelly Park,1160 South Road,Clovelly Park,South Australia,5042,-34.99567111597851,138.57421765300657
ALDI Evanston,1 Tulloch Road,Evanston,South Australia,5116,-34.62080971442429,138.73947819570148
ALDI Findon,263 - 271 Grange Road,Findon,South Australia,5023,-34.90507879762998,138.53383184530128
ALDI Gilles Plains,"Cnr Sudholz Road, North East Road",Gilles Plains,South Australia,5086,-34.85604194421222,138.6552697023899
ALDI Glenelg,601 Anzac Highway,Glenelg,South Australia,5045,-34.97610098273679,138.51785068667047
ALDI Glenunga,499 - 505 Portrush Road,Glenunga,South Australia,5064,-34.94777399605169,138.64260437686124
ALDI Glynde,19 - 29 Glynburn Road,Glynde,South Australia,5070,-34.89224803693787,138.65631502493787
ALDI Golden Grove,"Cnr Helicon Drive, The Golden Way",Golden Grove,South Australia,5125,-34.79189347016553,138.69289860185305
ALDI Hallett Cove,246 Lonsdale Road,Hallett Cove,South Australia,5158,-35.078028301780016,138.51585284020726
ALDI Hawthorn,198 Belair Road,Hawthorn,South Australia,5062,-34.97402116412374,138.6089112890836
ALDI Ingle Farm,237 Montague Road,Ingle Farm,South Australia,5098,-34.83049803103082,138.6485733302113
ALDI Kadina,10 Frances Terrace,Kadina,South Australia,5554,-33.96466534035552,137.71096978437234
ALDI Kensington Park,398 Magill Road,Kensington Park,South Australia,5068,-34.91453599940107,138.65744235704372
ALDI Kilburn,400 Churchill Road,Kilburn,South Australia,5084,-34.86630012605007,138.58173418587373
ALDI Kilkenny,470 Torrens Road,Kilkenny,South Australia,5009,-34.87394969168036,138.54982425366794
ALDI Mawson Lakes,1 - 7 Main Street,Mawson Lakes,South Australia,5095,-34.81055452582248,138.6153490292457
ALDI Modbury,972 - 976 North East Road,Modbury,South Australia,5092,-34.829945847709816,138.6934450352212
ALDI Morphett Vale,"Cnr Sherriffs Road, Hillier Road",Morphett Vale,South Australia,5162,-35.1053745,138.5219946
ALDI Mount Barker,"Cnr Hutchinson Street, Morphett Street",Mount Barker,South Australia,5251,-35.06629538643907,138.8589620680888
ALDI Mt Gambier,58 - 74 Commercial Street East,Mt Gambier,South Australia,5290,-37.82967439568344,140.7833458024127
ALDI Murray Bridge,105 - 109 Adelaide Road,Murray Bridge,South Australia,5253,-35.123385677011974,139.26312849138492
ALDI Newton,174 - 178 Gorge Road,Newton,South Australia,5074,-34.87665019501825,138.6838451113835
ALDI Noarlunga,"Cnr Beach Road, Goldsmith Drive",Noarlunga,South Australia,5168,-35.14290344164525,138.49828129502365
ALDI Norwood,76 Magill Road,Norwood,South Australia,5067,-34.91589382846476,138.62854509867145
ALDI Nuriootpa,"Cnr Murray Street, Gawler Street",Nuriootpa,South Australia,5355,-34.47390252809136,138.99441999549256
ALDI Oaklands Park,297 Diagonal Road,Oaklands Park,South Australia,5046,-35.01591121558122,138.54490635004552
ALDI Parafield Gardens,88 - 94 Lavender Drive,Parafield Gardens,South Australia,5107,-34.77500587657357,138.61842523709527
ALDI Plympton,"Cnr Anzac Highway, Marion Road",Plympton,South Australia,5038,-34.965642835215796,138.5538907339847
ALDI Port Adelaide,200 - 220 Commercial Road,Port Adelaide,South Australia,5015,-34.84896765324009,138.50470687388395
ALDI Port Pirie,8 Wandearah Road,Port Pirie,South Australia,5540,-33.185793441988615,138.01029423731293
ALDI Prospect,106 Main North Road,Prospect,South Australia,5082,-34.889958840272705,138.60259777476466
ALDI Salisbury,41 - 49 Park Terrace,Salisbury,South Australia,5108,-34.76476507328713,138.645014981021
ALDI Seaford Heights,1 Vista Parade,Seaford Heights,South Australia,5169,-35.1907601477022,138.494655991134
ALDI Smithfield,12 George McCullum Road,Smithfield,South Australia,5114,-34.68470686432995,138.68969299447747
ALDI St Agnes,1244 North East Road,St Agnes,South Australia,5097,-34.821821177945964,138.71659496826788
ALDI Stirling,3 - 5 Pomona Road,Stirling,South Australia,5152,-35.00299473679731,138.7170111204044
ALDI Victor Harbor,56 - 60 Adelaide Road,Victor Harbor,South Australia,5211,-35.53038383568174,138.63814338280463
ALDI West Lakes,44 Frederick Road,West Lakes,South Australia,5021,-34.88094790456394,138.5030655666123
ALDI Whyalla,10 - 14 Ekblom Street,Whyalla,South Australia,5608,-33.02829085209872,137.5360045251666
ALDI Woodcroft,"Cnr Panalatinga Road, Bains Road",Woodcroft,South Australia,5162,-35.11308775973784,138.5465840344211
ALDI Abbotsford,313 - 325 Victoria Street,Abbotsford,Victoria,3067,-37.80977288719412,144.99548633736558
ALDI Airport West,29 - 35 Louis Street,Airport West,Victoria,3042,-37.71520198112132,144.88430685138502
ALDI Alfredton,1611 - 161 Sturt Street,Alfredton,Victoria,3350,-37.5555683085927,143.81676735389854
ALDI Altona Gate,124 - 134 Millers Road,Altona Gate,Victoria,3025,-37.82810049756915,144.84740913954616
ALDI Altona Meadows,1 Central Avenue,Altona Meadows,Victoria,3028,-37.87191467018674,144.77510627872422
ALDI Altona North,302 - 330 Millers Road,Altona North,Victoria,3025,-37.844749248728625,144.84543240499923
ALDI Ararat,41 - 47 Moore Street,Ararat,Victoria,3377,-37.28459577469729,142.9326975932541
ALDI Armstrong Creek,35 - 43 Central Boulevard,Armstrong Creek,Victoria,3217,-38.2314402,144.3707166
ALDI Bacchus Marsh,158 - 196 Main Street,Bacchus Marsh,Victoria,3340,-37.67487986590226,144.43953718679504
ALDI Bairnsdale,90 - 120 Nicholson Street,Bairnsdale,Victoria,3875,-37.824611,147.6279646
ALDI Ballarat,102 -114 Creswick Road,Ballarat,Victoria,3350,-37.55602272046269,143.8553250097876
ALDI Balwyn North,"Cnr Doncaster Road, Tannock Street",Balwyn North,Victoria,3104,-37.79120377947953,145.09464031346366
ALDI Bayswater,10 - 14 High Street,Bayswater,Victoria,3153,-37.843082154372794,145.266173655208
ALDI Beaconsfield,53 Old Princes Highway,Beaconsfield,Victoria,3807,-38.04475102909283,145.36796102425993
ALDI Bell Park,9 / 222 Anakie Road,Bell Park,Victoria,3215,-38.096903290120274,144.3351006345066
ALDI Belmont,149 - 151 High Street,Belmont,Victoria,3216,-38.17407679851949,144.34435278606702
ALDI Benalla,141 - 153 Bridge Street,Benalla,Victoria,3672,-36.54986751502125,145.99021590459526
ALDI Bentleigh,285 - 305 Centre Road,Bentleigh,Victoria,3204,-37.91768002618803,145.03388170840861
ALDI Blackburn North,64-104 Springfield Rd,Blackburn North,Victoria,3130,-37.81141712907148,145.15258895043524
ALDI Box Hill South,391 - 395 Station Street,Box Hill South,Victoria,3128,-37.829368,145.1214884
ALDI Brandon Park,"Cnr Springvale Road, Ferntree Gully Road",Brandon Park,Victoria,3170,-37.90333396315231,145.16178351404034
ALDI Broadmeadows,1099-1169 Pascoe Vale Road,Broadmeadows,Victoria,3047,-37.68021169808746,144.91945045242628
ALDI Brunswick,292 - 298 Sydney Road,Brunswick,Victoria,3056,-37.770967081745255,144.96193855398462
ALDI Bundoora,584 - 604 Grimshaw Street,Bundoora,Victoria,3083,-37.69977896054366,145.05885427740236
ALDI Burnside,5 - 25 Westwood Drive,Burnside,Victoria,3023,-37.75962591827799,144.75418361220522
ALDI Burwood East,"Cnr Burwood Highway, Blackburn Road",Burwood East,Victoria,3151,-37.85358179031164,145.15105846732024
ALDI Camberwell,15 - 25 Station Street,Camberwell,Victoria,3124,-37.83081346742925,145.05869579048453
ALDI Campbellfield,"Cnr Sydney Road, Mahoneys Road",Campbellfield,Victoria,3061,-37.68768879849047,144.95986917349552
ALDI Carnegie,2 - 18 Koornang Road,Carnegie,Victoria,3064,-37.88444166556513,145.05826701467456
ALDI Caroline Springs,29 - 35 Lake Street,Caroline Springs,Victoria,3023,-37.73157936525023,144.74308163078572
ALDI Carrum,516 - 520 Station Street,Carrum,Victoria,3197,-38.07664729999998,145.12357954723873
ALDI Carrum Downs,493 Frankston-Dandenong Road,Carrum Downs,Victoria,3201,-38.110258431463706,145.16107806154972
ALDI Chadstone,695 Warrigal Road,Chadstone,Victoria,3148,-37.8789351,145.0912307
ALDI Cheltenham,280 - 282 Bay Road,Cheltenham,Victoria,3192,-37.955933095024726,145.03342563010037
ALDI Chirnside Park,"Cnr Kimberly Drive, El Centro St",Chirnside Park,Victoria,3116,-37.75627993179805,145.3128243333435
ALDI Clyde North,"Cnr Berwick-Cranbourne Road, Hamersley Dr",Clyde North,Victoria,3978,-38.09412722573199,145.3334628873108
ALDI Coburg North,1009 - 101 Sydney Road,Coburg North,Victoria,3058,-37.72337329421212,144.96237617836596
ALDI Colac,62 - 70 Hesse Street,Colac,Victoria,3250,-38.341534200383975,143.59029408682022
ALDI Corio,465 Princes Highway,Corio,Victoria,3214,-38.06505314106994,144.38015046898528
ALDI Cowes,68 - 80 Thompson Avenue,Cowes,Victoria,3922,-38.45065965583874,145.2385789570778
ALDI Craigieburn,340 Craigieburn Road,Craigieburn,Victoria,3064,-37.594627339447506,144.9144046170721
ALDI Cranbourne,14 - 20 Bakewell Street,Cranbourne,Victoria,3977,-38.11155551457467,145.28419567014268
ALDI Cranbourne East,1 S Linsell Boulevard,Cranbourne East,Victoria,3977,-38.1007563,145.2946343
ALDI Croydon,15 / 5 Kent Avenue,Croydon,Victoria,3136,-37.79398477943475,145.27918489970622
ALDI Dandenong Plaza,"Cnr McCrae Street, Walker Street",Dandenong Plaza,Victoria,3175,-37.98341277991505,145.21614202387315
ALDI Deer Park,"Cnr Neale Road, Station Road",Deer Park,Victoria,3023,-37.7526918,144.777877
ALDI Doncaster East,3 - 11 Mitchell Street,Doncaster East,Victoria,3109,-37.78825994770469,145.14785940572176
ALDI Dromana,120 Nepean Highway,Dromana,Victoria,3936,-38.33032264593627,144.98725665763226
ALDI Drysdale,12 - 22 Murradoc Road,Drysdale,Victoria,3222,-38.17368510524784,144.57199819230192
ALDI Eaglehawk,4 - 8 Peg Leg Road,Eaglehawk,Victoria,3556,-36.71730739754319,144.25046515700836
ALDI Echuca,218 - 222 Anstruther Street,Echuca,Victoria,3564,-36.12564980376408,144.7508088165676
ALDI Eden Rise,1 O'Shea Road,Eden Rise,Victoria,3806,-38.06235741502712,145.3393239748664
ALDI Eltham,6 - 20 Luck Street,Eltham,Victoria,3095,-37.712797845439745,145.15013683667658
ALDI Endeavour Hills,974 Heatherton Road,Endeavour Hills,Victoria,3802,-37.97689959982458,145.25918938465577
ALDI Epping,347 - 371 Dalton Road,Epping,Victoria,3076,-37.659427911148775,145.02978708528477
ALDI Epping,571 - 583 High Street,Epping,Victoria,3076,-37.65495360970697,145.01644364901404
ALDI Epping,"Cnr Harvest Home Road, Edgars Road",Epping,Victoria,3076,-37.621813055236615,145.006435169928
ALDI Epsom,182 - 192 Midland Highway,Epsom,Victoria,3551,-36.70379324915423,144.31679392157656
ALDI Ferntree Gully,1009 Burwood Highway,Ferntree Gully,Victoria,3156,-37.88823608539308,145.28897185027978
ALDI Fitzroy,247 Johnston Street,Fitzroy,Victoria,3065,-37.79862571148909,144.98360747915058
ALDI Forest Hill,3131 Canterbury Road,Forest Hill,Victoria,3131,-37.83536756800379,145.1649581920044
ALDI Frankston,28 Beach Street,Frankston,Victoria,3199,-38.13975386810502,145.12605483021832
ALDI Geelong West,117 - 127 Albert Street,Geelong West,Victoria,3218,-38.139880253686655,144.33770626332662
ALDI Gisborne,45 Aitken Street,Gisborne,Victoria,3437,-37.48867854517127,144.59173673246903
ALDI Gladstone Park,8 - 34 Gladstone Park Drive,Gladstone Park,Victoria,3043,-37.688214156745964,144.88465866686545
ALDI Glen Waverley,235 Springvale Road,Glen Waverley,Victoria,3150,-37.874939165493394,145.16495744052088
ALDI Greensborough,25 Main Street,Greensborough,Victoria,3088,-37.7029072584147,145.10116461647735
ALDI Grovedale,142 Torquay Road,Grovedale,Victoria,3216,-38.19322784869442,144.3435202242495
ALDI Hamilton,104 - 108 French Street,Hamilton,Victoria,3300,-37.74441679782979,142.0279181581856
ALDI Hampton Park,400 Pound Road,Hampton Park,Victoria,3976,-38.03455393056152,145.28428780744437
ALDI Hastings,5 Queen Street,Hastings,Victoria,3915,-38.30879506540555,145.18900180458053
ALDI Healesville,175 Maroondah Highway,Healesville,Victoria,3777,-37.65413250584672,145.51360485648382
ALDI Heidelberg West,318 Bell Street,Heidelberg West,Victoria,3081,-37.74881592890731,145.04075822909041
ALDI Highton,245 - 253 South Valley Road,Highton,Victoria,3216,-38.196181635319945,144.31882262820767
ALDI Horsham,67 - 73 Hamilton Street,Horsham,Victoria,3400,-36.71820789156247,142.19786873018424
ALDI Kangaroo Flat,"Cnr High Street, Lockwood Road",Kangaroo Flat,Victoria,3555,-36.79729291000833,144.24327801892952
ALDI Karingal,330 Cranbourne Road,Karingal,Victoria,3199,-38.1525284,145.1669475
ALDI Keilor Downs,80 Taylors Road,Keilor Downs,Victoria,3038,-37.72647710747095,144.80658728605135
ALDI Keilor East,"Cnr Milleara Road, Buckley Street",Keilor East,Victoria,3033,-37.750053820296685,144.86122275899893
ALDI Keysborough,466 - 468 Cheltenham Road,Keysborough,Victoria,3173,-37.99233581827581,145.1460119953143
ALDI Kilmore,97 Sydney Street,Kilmore,Victoria,3764,-37.28773302588957,144.94830662317415
ALDI Kilsyth,540 Mount Dandenong Rd,Kilsyth,Victoria,3137,-37.80323510543544,145.31131755290664
ALDI Lakes Entrance,6 - 12 Marine Parade,Lakes Entrance,Victoria,3909,-37.882056737366995,147.9742264504137
ALDI Leongatha,8 - 10 Bruce Street,Leongatha,Victoria,3953,-38.47861876374585,145.94476161421977
ALDI Leopold,641 - 659 Bellarine Highway,Leopold,Victoria,3224,-38.185544692171554,144.454495372999
ALDI Lilydale,33 Hutchinson Street,Lilydale,Victoria,3140,-37.760317727547346,145.34869690246018
ALDI Lower Plenty,45 Main Road,Lower Plenty,Victoria,3093,-37.72793576498954,145.1112165822718
ALDI Lyndhurst,10 - 18 Society Ave,Lyndhurst,Victoria,3975,-38.078073200414536,145.25078699957928
ALDI Malvern East,1341 Dandenong Road,Malvern East,Victoria,3148,-37.886460721302754,145.08431104089746
ALDI Maribyrnong,11 Edgewater Boulevard,Maribyrnong,Victoria,3032,-37.78431594757682,144.8922584110004
ALDI Maryborough,111 Burke Street,Maryborough,Victoria,3465,-37.04696421244078,143.74231389004171
ALDI Melbourne,501 Swanston St,Melbourne,Victoria,3000,-37.807198090373724,144.9623858745696
ALDI Melton,394 - 406 High Street,Melton,Victoria,3337,-37.68301183810867,144.5788750515379
ALDI Melton West,533 High Street,Melton West,Victoria,3337,-37.68689192132926,144.56087305448122
ALDI Mentone,27 - 29 / Nepean Hwy,Mentone,Victoria,3194,-37.97702640520791,145.069288910659
ALDI Mildura,858 Fifteenth Street,Mildura,Victoria,3500,-34.20651342612345,142.13500277061058
ALDI Mill Park,400 McDonalds Road,Mill Park,Victoria,3082,-37.6508126,145.0693969
ALDI Moe,10 - 12 Saviges Rd,Moe,Victoria,3825,-38.175250439369286,146.25809611863446
ALDI Monbulk,32 - 36 Main Road,Monbulk,Victoria,3793,-37.87638270147546,145.4089869295866
ALDI Moonee Ponds,14 - 16 Hall Street,Moonee Ponds,Victoria,3039,-37.76567046247718,144.92299393313525
ALDI Moorabbin Airport,288 Centre Dandenong Road,Moorabbin Airport,Victoria,3194,-37.97063193782895,145.09081448130559
ALDI Mooroopna,97 - 101 McLennan Street,Mooroopna,Victoria,3629,-36.39525367546097,145.35859955029778
ALDI Mordialloc,542 Main Street,Mordialloc,Victoria,3195,-38.00602558374044,145.08535805173938
ALDI Mornington,241 / M02 Main Street,Mornington,Victoria,3931,-38.22356640695168,145.04055061180608
ALDI Mornington Peninsula,1128 Nepean Hwy,Mornington Peninsula,Victoria,3931,-38.22015927202167,145.06269035760522
ALDI Morwell Mid Valley,94/72-82 Princes Drive,Morwell Mid Valley,Victoria,3840,-38.236982813522836,146.42979421043339
ALDI Mulgrave,271 Police Road,Mulgrave,Victoria,3170,-37.93546532542983,145.18935946840375
ALDI Narre Warren,229 Princess Highway,Narre Warren,Victoria,3805,-38.01770403214365,145.30097264714647
ALDI Narre Warren South,400 Narre Warren-Cranbourne Road,Narre Warren South,Victoria,3805,-38.06773397177285,145.30050727984525
ALDI Newcomb,Cnr Newcomb S/C Bellarine Hwy,Newcomb,Victoria,3219,-38.16989522080004,144.39216708001013
ALDI Northcote,"Cnr High Street, Seperation Street",Northcote,Victoria,3070,-37.76900055858964,145.00029378061123
ALDI Northland,2 - 50 Murray Road,Northland,Victoria,3072,-37.738756038529736,145.02880216973998
ALDI Ocean Grove,12 - 22 Coastal Boulevard,Ocean Grove,Victoria,3226,-38.247245851142225,144.54021975823238
ALDI Pakenham,1 - 3 Portobello Road,Pakenham,Victoria,3810,-38.06459379121955,145.45468901752636
ALDI Point Cook,4 Main Street,Point Cook,Victoria,3030,-37.882636940053665,144.73607308529196
ALDI Portland,29 Henty Street,Portland,Victoria,3305,-38.347188539886446,141.6021124861902
ALDI Prahran,34 Elizabeth Street,Prahran,Victoria,3181,-37.845893941860886,144.99362186933462
ALDI Preston,"Cnr Cramer Street, Mary Street",Preston,Victoria,3072,-37.73994233328123,145.00204603401505
ALDI Preston South,15 Dundas Street,Preston South,Victoria,3072,-37.752106603671294,145.0028220818515
ALDI Reservoir,850 Plenty Road,Reservoir,Victoria,3073,-37.72440616032692,145.0292522812747
ALDI Ringwood,"Cnr Maroondah Highway, New Street",Ringwood,Victoria,3134,-37.81587192096836,145.22305335356046
ALDI Rosebud,1313 Point Nepean Road,Rosebud,Victoria,3939,-38.359631871612585,144.89362208374666
ALDI Rowville,1100 Wellington Road,Rowville,Victoria,3178,-37.9284837,145.2514964
ALDI Roxburgh Park,250 Somerton Road,Roxburgh Park,Victoria,3064,-37.63789937143674,144.9331207488316
ALDI Sale,396 - 420 Raymond Street,Sale,Victoria,3850,-38.10396435642608,147.06610038832832
ALDI Sanctuary Lakes,300 Point Cook Road,Sanctuary Lakes,Victoria,3030,-37.89556338918132,144.7519794662093
ALDI Scoresby,800 Stud Road,Scoresby,Victoria,3179,-37.901220871250345,145.232965234625
ALDI Sebastopol,31 - 35 Albert Street,Sebastopol,Victoria,3356,-37.58484245663181,143.84188365554397
ALDI Seville,638 Warburton Highway,Seville,Victoria,3139,-37.7783887272806,145.45897437179298
ALDI Seymour,32 - 34 Tallarook Street,Seymour,Victoria,3660,-37.02285250711379,145.13314049937162
ALDI Shepparton,428 Wyndham Street,Shepparton,Victoria,3630,-36.38370621018285,145.3982101841543
ALDI Somerville,1089 - 109 Frankston-Flinders Road,Somerville,Victoria,3912,-38.224973259569765,145.177554490849
ALDI South Melbourne,100 Market Street,South Melbourne,Victoria,3205,-37.82992030389999,144.95703914612665
ALDI Southland,1239 Nepean Highway,Southland,Victoria,3192,-37.9591095,145.0550406
ALDI Springvale,754 - 768 Princes Highway,Springvale,Victoria,3171,-37.941256633413374,145.16779845126842
ALDI Springvale South,792 - 806 Heatherton Road,Springvale South,Victoria,3172,-37.96162087157456,145.14316851610525
ALDI St Kilda,135 Inkerman Street,St Kilda,Victoria,3182,-37.864994939865106,144.98768416380636
ALDI Strathdale,90 - 92 Edwards Road,Strathdale,Victoria,3550,-36.77165485692499,144.30432059671594
ALDI Sunbury,112 - 126 Gap Road,Sunbury,Victoria,3429,-37.57825147716506,144.71244691212522
ALDI Sunshine,324 - 328 Hampshire Road,Sunshine,Victoria,3020,-37.78275186385284,144.8341911194692
ALDI Swan Hill,"Cnr Campbell Street, Rutherford Street",Swan Hill,Victoria,3585,-35.34250108819298,143.56076436834354
ALDI Tarneit,177 Hummingbird Boulevard,Tarneit,Victoria,3029,-37.8350414,144.6522615
ALDI Tarneit,380 Sayers Road,Tarneit,Victoria,3029,-37.84915903888981,144.70494599147554
ALDI Tarneit,540 Derrimut Road,Tarneit,Victoria,3029,-37.83749843650987,144.69335992167376
ALDI Taylors Lakes,399 Melton Highway,Taylors Lakes,Victoria,3038,-37.69808448129604,144.77999975386552
ALDI Templestowe Lower,299 - 301 Manningham Road,Templestowe Lower,Victoria,3107,-37.77312195085336,145.11194801195154
ALDI The Pines,181 Reynolds Road,The Pines,Victoria,3109,-37.761675457228115,145.16945501268762
ALDI Torquay,14 - 18 Winki Way,Torquay,Victoria,3228,-38.31050896478021,144.31804193451615
ALDI Traralgon,141 - 143 Argyle Street,Traralgon,Victoria,3844,-38.19248035238628,146.55547691815397
ALDI Truganina,33 Prosperity Street,Truganina,Victoria,3029,-37.8378887,144.7402954
ALDI Vermont South,495 Burwood Highway,Vermont South,Victoria,3133,-37.85511770529939,145.18262592499119
ALDI Wallan,13 - 17 High Street,Wallan,Victoria,3756,-37.41792995889082,144.9780080445769
ALDI Wangaratta,13 - 15 Chisholm Street,Wangaratta,Victoria,3677,-36.35636500717067,146.3271465662955
ALDI Wantirna South,425 Burwood Hwy,Wantirna South,Victoria,3152,-37.8684684,145.239244
ALDI Warragul,12 - 28 Queen Street,Warragul,Victoria,3820,-38.16264501593268,145.9269028472905
ALDI Warringal,56 Burgundy Street,Warringal,Victoria,3084,-37.755455048181,145.06871823732942
ALDI Warrnambool,154 Raglan Parade,Warrnambool,Victoria,3280,-38.38154582806383,142.5205993110804
ALDI Warrnambool,251 - 257 Lava Street,Warrnambool,Victoria,3280,-38.3800188100347,142.47879240868792
ALDI Wendouree,21 Learmonth Road,Wendouree,Victoria,3355,-37.536133584726684,143.81851599212268
ALDI Werribee,77 - 83 Synott Street,Werribee,Victoria,3030,-37.90519198888483,144.657823435582
ALDI Werribee,"Cnr Derrimut Road, Heaths Road",Werribee,Victoria,3030,-37.874488032716464,144.67833691618776
ALDI West Footscray,67 Ashley Street,West Footscray,Victoria,3012,-37.79301449230857,144.86075142391917
ALDI West Melbourne,528 Spencer St,West Melbourne,Victoria,3003,-37.807972444554466,144.94862920544173
ALDI White Box Rise Wodonga,"Cnr Victoria Cross Parade, Wark Street",White Box Rise Wodonga,Victoria,3690,-36.13846379896794,146.89504034008775
ALDI Wodonga,72 Elgin Boulevard,Wodonga,Victoria,3690,-36.119138900077616,146.8816824619713
ALDI Wonthaggi,"Cnr Murray Street, McKenzie Street",Wonthaggi,Victoria,3995,-38.604246369382665,145.5927219478114
ALDI Wyndham Vale,209 Greens Road,Wyndham Vale,Victoria,3024,-37.8874212409731,144.60728122084942
ALDI Albany,70-80 Albany Highway,Albany,Western Australia,6330,-35.01833569248158,117.88158509930237
ALDI Armadale,224 Jull Street,Armadale,Western Australia,6112,-32.153493896326715,116.01577132847841
ALDI Australind,5 Mardo Avenue,Australind,Western Australia,6233,-33.28072729314502,115.71568189142693
ALDI Baldivis,26 Safety Bay Road,Baldivis,Western Australia,6171,-32.3331161,115.8147347
ALDI Banksia Grove,3 Jewel Way,Banksia Grove,Western Australia,6031,-31.705099918052515,115.8014249699744
ALDI Beechboro,161 Altone Park Road,Beechboro,Western Australia,6063,-31.870808024502068,115.94585753224615
ALDI Beeliar,283 Beeliar Drive,Beeliar,Western Australia,6164,-32.12651013103088,115.79839644425545
ALDI Belmont,227 Belmont Avenue,Belmont,Western Australia,6105,-31.965982799819187,115.93499429438758
ALDI Bunbury,9 Edward Street,Bunbury,Western Australia,6230,-33.32850541496728,115.6388359102077
ALDI Busselton,"Cnr Bussell Highway, West Street",Busselton,Western Australia,6280,-33.65559267877549,115.3411579812848
ALDI Butler,"Cnr Butler Boulevard, Camborne Parkway",Butler,Western Australia,6036,-31.637946372355255,115.69634882820768
ALDI Byford,845 South Western Highway,Byford,Western Australia,6122,-32.220074234016515,116.00848800539904
ALDI Camillo,131 Westfield Road,Camillo,Western Australia,6111,-32.11901478028855,116.00109247294758
ALDI Cannington,1383 Albany Highway,Cannington,Western Australia,6107,-32.021920352154886,115.93657116360205
ALDI Clarkson,36 Ocean Keys Blvd,Clarkson,Western Australia,6030,-31.691144869541027,115.71766829840801
ALDI Cockburn,816 Beeliar Drive,Cockburn,Western Australia,6164,-32.13257943750066,115.85778759754415
ALDI Currambine,86 Delamere Avenue,Currambine,Western Australia,6028,-31.741398075002916,115.74111497258869
ALDI East Victoria Park,"1009,1013 Albany Highway",East Victoria Park,Western Australia,6101,-31.992942264707423,115.91092766462563
ALDI Ellenbrook,"Cnr The Promenade, Pinaster Pd",Ellenbrook,Western Australia,6056,-31.781948684741185,115.97416859333991
ALDI Halls Head,14 Guava Way,Halls Head,Western Australia,6210,-32.548021288863,115.70268299147877
ALDI Harrisdale,"Cnr Nicholson Road, Yellowwood Avenue",Harrisdale,Western Australia,6112,-32.1266266363949,115.92665031054798
ALDI Hillarys,"Cnr Marmion Avenue, Whitfords Ave",Hillarys,Western Australia,6025,-31.797352292709203,115.74781576765517
ALDI Inglewood,"Cnr Beaufort Street, Tenth Avenue",Inglewood,Western Australia,6052,-31.920963987109474,115.88696271731946
ALDI Innaloo,Ellen Stirling Boulevard,Innaloo,Western Australia,6018,-31.89895954238065,115.8019607239547
ALDI Joondalup,420 Joondalup Drive,Joondalup,Western Australia,6027,-31.74424276447333,115.768228459055
ALDI Kalamunda,17 Mead Street,Kalamunda,Western Australia,6076,-31.973544389297796,116.05823983374691
ALDI Kardinya,17 South Street,Kardinya,Western Australia,6163,-32.06727396825327,115.81829474412821
ALDI Karrinyup,200 Karrinyup Road,Karrinyup,Western Australia,6018,-31.8768050762861,115.77880247055225
ALDI Kwinana,32 Meares Avenue,Kwinana,Western Australia,6167,-32.243812076462866,115.81531104554873
ALDI Lakelands,"Cnr Lake Valley Drive, Seppings Parade",Lakelands,Western Australia,6180,-32.47171112960046,115.76108975268355
ALDI Madeley,168 Wanneroo Road,Madeley,Western Australia,6065,-31.817894,115.8232489
ALDI Mandurah,2 Aldgate Street,Mandurah,Western Australia,6210,-32.53217426441271,115.73302364689859
ALDI Midland,274 Great Eastern Highway,Midland,Western Australia,6056,-31.890173910915596,116.01285231229473
ALDI Mirrabooka,43 Yirrigan Drive,Mirrabooka,Western Australia,6061,-31.871255,115.86166127055226
ALDI Morley,4 Collier Rd,Morley,Western Australia,6062,-31.89963009959013,115.90026253882304
ALDI Mundaring,22 - 24 Hartung Street,Mundaring,Western Australia,6073,-31.9005718054489,116.1650028791535
ALDI Northam,10 Beamish Avenue,Northam,Western Australia,6401,-31.657417901032126,116.67056402894424
ALDI Rockingham,10 Robinson Road,Rockingham,Western Australia,6168,-32.28796450730351,115.74273681371785
ALDI Secret Harbour,420 Secret Harbour Blvd,Secret Harbour,Western Australia,6173,-32.408910648536754,115.75919859595808
ALDI South Fremantle,219 / 24 Hampton Road,South Fremantle,Western Australia,6162,-32.07421133678322,115.7584610559196
ALDI South Lake,"Cnr North Lake Road, Omeo Road",South Lake,Western Australia,6164,-32.10713128106492,115.82854556263153
ALDI Southern River,346 Warton Road,Southern River,Western Australia,6110,-32.090838211652446,115.94264710316378
ALDI Spearwood,"Cnr Burgundy Crescent, Lancaster Street",Spearwood,Western Australia,6163,-32.09633401405693,115.78456365604256
ALDI Thornlie,115 Murdoch Road,Thornlie,Western Australia,6108,-32.06893616678499,115.95053949916252
ALDI Waikiki,"Cnr Read Street, Gnangara Drive",Waikiki,Western Australia,6169,-32.314639455422174,115.75448019714938
ALDI Wanneroo,"Cnr Conlan Avenue, Wanneroo Road",Wanneroo,Western Australia,6065,-31.752232062101125,115.80575219774204
ALDI Warwick,"Cnr Erindale Road, Beach Road",Warwick,Western Australia,6024,-31.843825778966213,115.81105758424523
ALDI Wattle Grove,338 Hale Road,Wattle Grove,Western Australia,6107,-32.00014363124133,115.9847932042651
ALDI Willetton,45 Burrendah Blvd,Willetton,Western Australia,6155,-32.05770830713235,115.8799487061342
ALDI Wonthella,46 North West Coastal Highway,Wonthella,Western Australia,6530,-28.7768497334718,114.62687500583436
ALDI Yanchep,2 Kakadu Road,Yanchep,Western Australia,6035,-31.548399353958004,115.6403306748347
ALDI Yokine,6 Wanneroo Road,Yokine,Western Australia,6060,-31.910859783318546,115.846547722563
